IRIDIUM 106             
1 41917U 17003A   25133.88002756  .00000018  00000+0 -69949-6 0  9995
2 41917  86.3962 255.3374 0002671 100.8497 259.3000 14.34217586435970
IRIDIUM 103             
1 41918U 17003B   25133.86734033  .00000026  00000+0  21822-5 0  9999
2 41918  86.3962 255.2436 0001954 110.2509 249.8897 14.34217770435996
IRIDIUM 109             
1 41919U 17003C   25133.87368344  .00000029  00000+0  33629-5 0  9990
2 41919  86.3963 255.2938 0001995  96.1878 263.9545 14.34217734435965
IRIDIUM 102             
1 41920U 17003D   25133.84197099  .00000018  00000+0 -63369-6 0  9990
2 41920  86.3963 255.2391 0002238  91.4093 268.7359 14.34217634436043
IRIDIUM 105             
1 41921U 17003E   25133.74293978  .00000322  00000+0  10778-3 0  9993
2 41921  86.4014 223.7321 0002225 101.6310 258.5136 14.34214783437882
IRIDIUM 104             
1 41922U 17003F   25133.85465491  .00000055  00000+0  12622-4 0  9991
2 41922  86.3963 255.2704 0001754  98.4524 261.6871 14.34217945436036
IRIDIUM 114             
1 41923U 17003G   25133.86099843  .00000019  00000+0 -15337-6 0  9996
2 41923  86.3963 255.2523 0002151 102.9070 257.2366 14.34217702436014
IRIDIUM 108             
1 41924U 17003H   25133.74975017  .00000201  00000+0  64604-4 0  9991
2 41924  86.4006 223.6325 0002494  95.4258 264.7223 14.34219243437857
